{"type": "FeatureCollection", "features": [ {"type": "Feature", "properties": {"norad_id": 31169, "name": "FENGYUN 1C DEB", "group": "fengyun-1c-debris", "lat": 4.273759217324357, "lon": 3.818874471409239, "alt_km": 773.1426674320919, "timestamp": "2025-12-04T10:51:50.386145+00:00", "meta": {"OBJECT_NAME": "FENGYUN 1C DEB", "OBJECT_ID": "1999-025BHX", "EPOCH": "2025-12-03T19:41:29.870304", "MEAN_MOTION": 14.26310452, "ECCENTRICITY": 0.005813, "INCLINATION": 99.1573, "RA_OF_ASC_NODE": 3.8489, "ARG_OF_PERICENTER": 43.7006, "MEAN_ANOMALY": 316.8753, "EPHEMERIS_TYPE": 0, "CLASSIFICATION_TYPE": "U", "NORAD_CAT_ID": 31169, "ELEMENT_SET_NO": 999, "REV_AT_EPOCH": 56977, "BSTAR": 0.003791, "MEAN_MOTION_DOT": 9.228e-05, "MEAN_MOTION_DDOT": 0}, "tle": {"line1": "1 31169U 99025BHX 25337.82048461  .00009228  00000+0  37910-2 0  9990", "line2": "2 31169  99.1573   3.8489 0058130  43.7006 316.8753 14.26310452569770"}}, "geometry": {"type": "Point", "coordinates": [3.818874471409239, 4.273759217324357]}}, {"type": "Feature", "properties": {"norad_id": 31171, "name": "FENGYUN 1C DEB", "group": "fengyun-1c-debris", "lat": -32.54368529050995, "lon": 143.55779952235775, "alt_km": 852.222971804471, "timestamp": "2025-12-04T10:51:50.386155+00:00", "meta": {"OBJECT_NAME": "FENGYUN 1C DEB", "OBJECT_ID": "1999-025BHZ", "EPOCH": "2025-12-03T11:09:43.644672", "MEAN_MOTION": 14.34330829, "ECCENTRICITY": 0.01562133, "INCLINATION": 98.0138, "RA_OF_ASC_NODE": 327.7993, "ARG_OF_PERICENTER": 344.5885, "MEAN_ANOMALY": 173.0615, "EPHEMERIS_TYPE": 0, "CLASSIFICATION_TYPE": "U", "NORAD_CAT_ID": 31171, "ELEMENT_SET_NO": 999, "REV_AT_EPOCH": 95697, "BSTAR": 0.0068217205, "MEAN_MOTION_DOT": 0.00022011, "MEAN_MOTION_DDOT": 0}, "tle": {"line1": "1 31171U 99025BHZ 25337.46508848  .00022011  00000+0  68217-2 0  9992", "line2": "2 31171  98.0138 327.7993 0156213 344.5885 173.0615 14.34330829956975"}}, "geometry": {"type": "Point", "coordinates": [143.55779952235775, -32.54368529050995]}}, {"type": "Feature", "properties": {"norad_id": 31172, "name": "FENGYUN 1C DEB", "group": "fengyun-1c-debris", "lat": -22.84160736383835, "lon": 159.5905383069207, "alt_km": 791.0416207424814, "timestamp": "2025-12-04T10:51:50.386165+00:00", "meta": {"OBJECT_NAME": "FENGYUN 1C DEB", "OBJECT_ID": "1999-025BJA", "EPOCH": "2025-12-03T18:48:21.048480", "MEAN_MOTION": 14.31497932, "ECCENTRICITY": 0.01481793, "INCLINATION": 98.425, "RA_OF_ASC_NODE": 342.5203, "ARG_OF_PERICENTER": 295.2463, "MEAN_ANOMALY": 63.3425, "EPHEMERIS_TYPE": 0, "CLASSIFICATION_TYPE": "U", "NORAD_CAT_ID": 31172, "ELEMENT_SET_NO": 999, "REV_AT_EPOCH": 97498, "BSTAR": 0.00025788002, "MEAN_MOTION_DOT": 7.26e-06, "MEAN_MOTION_DDOT": 0}, "tle": {"line1": "1 31172U 99025BJA 25337.78357695  .00000726  00000+0  25788-3 0  9996", "line2": "2 31172  98.4250 342.5203 0148179 295.2463  63.3425 14.31497932974987"}}, "geometry": {"type": "Point", "coordinates": [159.5905383069207, -22.84160736383835]}}, {"type": "Feature", "properties": {"norad_id": 31175, "name": "FENGYUN 1C DEB", "group": "fengyun-1c-debris", "lat": -16.057869537793167, "lon": -19.034563614938257, "alt_km": 745.8348027468464, "timestamp": "2025-12-04T10:51:50.386176+00:00", "meta": {"OBJECT_NAME": "FENGYUN 1C DEB", "OBJECT_ID": "1999-025BJD", "EPOCH": "2025-12-01T05:36:03.315744", "MEAN_MOTION": 14.5932158, "ECCENTRICITY": 0.0074068, "INCLINATION": 98.3999, "RA_OF_ASC_NODE": 335.2701, "ARG_OF_PERICENTER": 201.7311, "MEAN_ANOMALY": 158.074, "EPHEMERIS_TYPE": 0, "CLASSIFICATION_TYPE": "U", "NORAD_CAT_ID": 31175, "ELEMENT_SET_NO": 999, "REV_AT_EPOCH": 65471, "BSTAR": 0.0049039, "MEAN_MOTION_DOT": 0.00024116, "MEAN_MOTION_DDOT": 0}, "tle": {"line1": "1 31175U 99025BJD 25335.23337171  .00024116  00000+0  49039-2 0  9997", "line2": "2 31175  98.3999 335.2701 0074068 201.7311 158.0740 14.59321580654713"}}, "geometry": {"type": "Point", "coordinates": [-19.034563614938257, -16.057869537793167]}}, {"type": "Feature", "properties": {"norad_id": 31177, "name": "FENGYUN 1C DEB", "group": "fengyun-1c-debris", "lat": -4.145485201114111, "lon": -106.64094403571353, "alt_km": 814.6846742234047, "timestamp": "2025-12-04T10:51:50.386186+00:00", "meta": {"OBJECT_NAME": "FENGYUN 1C DEB", "OBJECT_ID": "1999-025BJF", "EPOCH": "2025-12-01T06:04:03.773280", "MEAN_MOTION": 13.62101426, "ECCENTRICITY": 0.0311511, "INCLINATION": 98.7576, "RA_OF_ASC_NODE": 249.8401, "ARG_OF_PERICENTER": 343.5186, "MEAN_ANOMALY": 168.581, "EPHEMERIS_TYPE": 0, "CLASSIFICATION_TYPE": "U", "NORAD_CAT_ID": 31177, "ELEMENT_SET_NO": 999, "REV_AT_EPOCH": 66055, "BSTAR": 0.0077346, "MEAN_MOTION_DOT": 8.228e-05, "MEAN_MOTION_DDOT": 0}, "tle": {"line1": "1 31177U 99025BJF 25335.25282145  .00008228  00000+0  77346-2 0  9999", "line2": "2 31177  98.7576 249.8401 0311511 343.5186 168.5810 13.62101426660550"}}, "geometry": {"type": "Point", "coordinates": [-106.64094403571353, -4.145485201114111]}}, {"type": "Feature", "properties": {"norad_id": 31178, "name": "FENGYUN 1C DEB", "group": "fengyun-1c-debris", "lat": 79.4159599687133, "lon": -83.77469447695263, "alt_km": 835.5517748489119, "timestamp": "2025-12-04T10:51:50.386196+00:00", "meta": {"OBJECT_NAME": "FENGYUN 1C DEB", "OBJECT_ID": "1999-025BJG", "EPOCH": "2025-12-02T17:56:29.630688", "MEAN_MOTION": 14.22038193, "ECCENTRICITY": 0.01265047, "INCLINATION": 99.5128, "RA_OF_ASC_NODE": 338.2016, "ARG_OF_PERICENTER": 343.8083, "MEAN_ANOMALY": 15.9067, "EPHEMERIS_TYPE": 0, "CLASSIFICATION_TYPE": "U", "NORAD_CAT_ID": 31178, "ELEMENT_SET_NO": 999, "REV_AT_EPOCH": 95673, "BSTAR": 0.0027418123, "MEAN_MOTION_DOT": 6.532e-05, "MEAN_MOTION_DDOT": 0}, "tle": {"line1": "1 31178U 99025BJG 25336.74756517  .00006532  00000+0  27418-2 0  9995", "line2": "2 31178  99.5128 338.2016 0126504 343.8083  15.9067 14.22038193956737"}}, "geometry": {"type": "Point", "coordinates": [-83.77469447695263, 79.4159599687133]}}, {"type": "Feature", "properties": {"norad_id": 31179, "name": "FENGYUN 1C DEB", "group": "fengyun-1c-debris", "lat": 61.178244232347424, "lon": -164.61466650447417, "alt_km": 923.6687882844162, "timestamp": "2025-12-04T10:51:50.386206+00:00", "meta": {"OBJECT_NAME": "FENGYUN 1C DEB", "OBJECT_ID": "1999-025BJH", "EPOCH": "2025-12-03T18:47:29.481504", "MEAN_MOTION": 13.91881058, "ECCENTRICITY": 0.02153706, "INCLINATION": 99.0219, "RA_OF_ASC_NODE": 357.9513, "ARG_OF_PERICENTER": 25.2489, "MEAN_ANOMALY": 335.9014, "EPHEMERIS_TYPE": 0, "CLASSIFICATION_TYPE": "U", "NORAD_CAT_ID": 31179, "ELEMENT_SET_NO": 999, "REV_AT_EPOCH": 61816, "BSTAR": 0.0015971824, "MEAN_MOTION_DOT": 2.417e-05, "MEAN_MOTION_DDOT": 0}, "tle": {"line1": "1 31179U 99025BJH 25337.78298011  .00002417  00000+0  15972-2 0  9991", "line2": "2 31179  99.0219 357.9513 0215370  25.2489 335.9014 13.91881058618165"}}, "geometry": {"type": "Point", "coordinates": [-164.61466650447417, 61.178244232347424]}}, {"type": "Feature", "properties": {"norad_id": 31180, "name": "FENGYUN 1C DEB", "group": "fengyun-1c-debris", "lat": 27.530368832272277, "lon": -64.84638629970516, "alt_km": 856.8547215593499, "timestamp": "2025-12-04T10:51:50.386216+00:00", "meta": {"OBJECT_NAME": "FENGYUN 1C DEB", "OBJECT_ID": "1999-025BJJ", "EPOCH": "2025-12-04T03:57:54.779040", "MEAN_MOTION": 13.70330366, "ECCENTRICITY": 0.0498449, "INCLINATION": 99.2171, "RA_OF_ASC_NODE": 110.0219, "ARG_OF_PERICENTER": 82.4883, "MEAN_ANOMALY": 86.8977, "EPHEMERIS_TYPE": 0, "CLASSIFICATION_TYPE": "U", "NORAD_CAT_ID": 31180, "ELEMENT_SET_NO": 999, "REV_AT_EPOCH": 63949, "BSTAR": 0.00041828, "MEAN_MOTION_DOT": 8.53e-06, "MEAN_MOTION_DDOT": 0}, "tle": {"line1": "1 31180U 99025BJJ 25338.16521735  .00000853  00000+0  41828-3 0  9990", "line2": "2 31180  99.2171 110.0219 0498449  82.4883  86.8977 13.70330366639497"}}, "geometry": {"type": "Point", "coordinates": [-64.84638629970516, 27.530368832272277]}}, {"type": "Feature", "properties": {"norad_id": 31181, "name": "FENGYUN 1C DEB", "group": "fengyun-1c-debris", "lat": -56.74958268676728, "lon": 177.55463772589306, "alt_km": 886.7996229149858, "timestamp": "2025-12-04T10:51:50.386226+00:00", "meta": {"OBJECT_NAME": "FENGYUN 1C DEB", "OBJECT_ID": "1999-025BJK", "EPOCH": "2025-12-04T01:30:15.705792", "MEAN_MOTION": 14.11841784, "ECCENTRICITY": 0.0048158, "INCLINATION": 98.7766, "RA_OF_ASC_NODE": 10.8018, "ARG_OF_PERICENTER": 98.6212, "MEAN_ANOMALY": 317.7144, "EPHEMERIS_TYPE": 0, "CLASSIFICATION_TYPE": "U", "NORAD_CAT_ID": 31181, "ELEMENT_SET_NO": 999, "REV_AT_EPOCH": 95645, "BSTAR": 0.0015976, "MEAN_MOTION_DOT": 2.906e-05, "MEAN_MOTION_DDOT": 0}, "tle": {"line1": "1 31181U 99025BJK 25338.06268178  .00002906  00000+0  15976-2 0  9994", "line2": "2 31181  98.7766  10.8018 0048158  98.6212 317.7144 14.11841784956456"}}, "geometry": {"type": "Point", "coordinates": [177.55463772589306, -56.74958268676728]}}, {"type": "Feature", "properties": {"norad_id": 31182, "name": "FENGYUN 1C DEB", "group": "fengyun-1c-debris", "lat": -49.050328599148344, "lon": -22.301473519824174, "alt_km": 864.9396792986036, "timestamp": "2025-12-04T10:51:50.386237+00:00", "meta": {"OBJECT_NAME": "FENGYUN 1C DEB", "OBJECT_ID": "1999-025BJL", "EPOCH": "2025-11-30T19:23:45.055104", "MEAN_MOTION": 14.14526628, "ECCENTRICITY": 0.00226562, "INCLINATION": 98.6809, "RA_OF_ASC_NODE": 324.0155, "ARG_OF_PERICENTER": 170.3323, "MEAN_ANOMALY": 311.2725, "EPHEMERIS_TYPE": 0, "CLASSIFICATION_TYPE": "U", "NORAD_CAT_ID": 31182, "ELEMENT_SET_NO": 999, "REV_AT_EPOCH": 95912, "BSTAR": 0.00037537528, "MEAN_MOTION_DOT": 6.79e-06, "MEAN_MOTION_DDOT": 0}, "tle": {"line1": "1 31182U 99025BJL 25334.80816036  .00000679  00000+0  37538-3 0  9999", "line2": "2 31182  98.6809 324.0155 0022656 170.3323 311.2725 14.14526628959123"}}, "geometry": {"type": "Point", "coordinates": [-22.301473519824174, -49.050328599148344]}}]}